{"type": "FeatureCollection", "features": [{"type": "Feature", "properties": {"dormId": "belair", "name": "Bel Air Hall", "height": 20.0, "osm": "way/23543989", "osmName": "Bel Air Hall", "match": "contains"}, "geometry": {"type": "Polygon", "coordinates": [[[-76.9428925, 38.99286], [-76.9428923, 38.9927493], [-76.9427423, 38.9927494], [-76.9424835, 38.9927496], [-76.9423767, 38.9927497], [-76.9423768, 38.9928604], [-76.9428925, 38.99286]]]}}, {"type": "Feature", "properties": {"dormId": "cambridge", "name": "Cambridge Hall", "height": 16.1, "osm": "way/23543940", "osmName": "Cambridge Hall", "match": "contains"}, "geometry": {"type": "Polygon", "coordinates": [[[-76.9435395, 38.9917838], [-76.9435394, 38.9916663], [-76.9431456, 38.9916625], [-76.9431452, 38.9916345], [-76.9430681, 38.9916361], [-76.9429045, 38.9916362], [-76.9429046, 38.9916685], [-76.9425706, 38.9916686], [-76.9425707, 38.9917841], [-76.942633, 38.9917841], [-76.942778, 38.9917839], [-76.9429184, 38.991784], [-76.9430028, 38.9917839], [-76.9430763, 38.9917839], [-76.9431597, 38.9917839], [-76.9432734, 38.9917838], [-76.9433699, 38.9917838], [-76.9435395, 38.9917838]]]}}, {"type": "Feature", "properties": {"dormId": "centreville", "name": "Centreville Hall", "height": 35.6, "osm": "way/23543957", "osmName": "Centreville Hall", "match": "contains"}, "geometry": {"type": "Polygon", "coordinates": [[[-76.9420293, 38.9918302], [-76.9420318, 38.9921154], [-76.9420103, 38.9921155], [-76.9420105, 38.9921388], [-76.9420114, 38.9922446], [-76.9420117, 38.9922764], [-76.9420126, 38.9923817], [-76.9420132, 38.9924405], [-76.9420312, 38.9924404], [-76.9420314, 38.9924623], [-76.9420335, 38.9927108], [-76.94211, 38.9927104], [-76.9421701, 38.9927101], [-76.9421685, 38.9925229], [-76.9422583, 38.9925225], [-76.9422574, 38.9924092], [-76.9422568, 38.9923428], [-76.9422554, 38.9921842], [-76.9422547, 38.9921124], [-76.9422542, 38.9920431], [-76.9421799, 38.9920435], [-76.9421781, 38.9918294], [-76.9421147, 38.9918297], [-76.9420293, 38.9918302]]]}}, {"type": "Feature", "properties": {"dormId": "chestertown", "name": "Chestertown Hall", "height": 20.0, "osm": "way/23543980", "osmName": "Chestertown Hall", "match": "contains"}, "geometry": {"type": "Polygon", "coordinates": [[[-76.9437145, 38.992853], [-76.9437171, 38.9927432], [-76.9436076, 38.9927445], [-76.9433988, 38.9927454], [-76.9431949, 38.9927462], [-76.9431957, 38.9928556], [-76.9437145, 38.992853]]]}}, {"type": "Feature", "properties": {"dormId": "cumberland", "name": "Cumberland Hall", "height": 31.7, "osm": "way/23543927", "osmName": "Cumberland Hall", "match": "contains"}, "geometry": {"type": "Polygon", "coordinates": [[[-76.9440783, 38.9926887], [-76.9440781, 38.9925744], [-76.9440779, 38.9924526], [-76.9440777, 38.9923625], [-76.9440248, 38.9923626], [-76.9440247, 38.9923353], [-76.9440245, 38.9921826], [-76.9440243, 38.9921119], [-76.9440796, 38.9921118], [-76.9440798, 38.9920617], [-76.9440801, 38.9919362], [-76.9440791, 38.9918253], [-76.9440036, 38.9918254], [-76.9439308, 38.9918255], [-76.9439311, 38.9920185], [-76.9438823, 38.9920186], [-76.9438824, 38.9920549], [-76.943883, 38.992414], [-76.9438831, 38.9924562], [-76.9438831, 38.9925036], [-76.9439366, 38.9925036], [-76.9439369, 38.9926889], [-76.9440063, 38.9926888], [-76.9440783, 38.9926887]]]}}, {"type": "Feature", "properties": {"dormId": "denton", "name": "Denton Hall", "height": 31.7, "osm": "way/23545038", "osmName": "Denton Hall", "match": "contains"}, "geometry": {"type": "Polygon", "coordinates": [[[-76.9504297, 38.9923836], [-76.9501639, 38.9922668], [-76.9501814, 38.9922427], [-76.9501168, 38.9922139], [-76.9499601, 38.9921443], [-76.9498809, 38.9921107], [-76.9498628, 38.9921356], [-76.9495635, 38.9920042], [-76.9495342, 38.9920444], [-76.9494933, 38.9921007], [-76.9498603, 38.992262], [-76.9498445, 38.9922838], [-76.9499195, 38.9923167], [-76.9500079, 38.9923556], [-76.9500203, 38.9923385], [-76.9503555, 38.9924858], [-76.9503949, 38.9924316], [-76.9504297, 38.9923836]]]}}, {"type": "Feature", "properties": {"dormId": "easton", "name": "Easton Hall", "height": 35.6, "osm": "way/23545068", "osmName": "Easton Hall", "match": "contains"}, "geometry": {"type": "Polygon", "coordinates": [[[-76.9499514, 38.99334], [-76.9501239, 38.9931006], [-76.9500885, 38.9930852], [-76.9501401, 38.9930138], [-76.9501942, 38.9929387], [-76.9502301, 38.9929543], [-76.9504505, 38.9926485], [-76.9505053, 38.9926723], [-76.9505642, 38.992698], [-76.9503472, 38.992999], [-76.9503808, 38.9930136], [-76.9503616, 38.9930402], [-76.9503203, 38.9930976], [-76.9502652, 38.9931741], [-76.9502326, 38.9931599], [-76.9500666, 38.9933901], [-76.9499821, 38.9933533], [-76.9499514, 38.99334]]]}}, {"type": "Feature", "properties": {"dormId": "elkton", "name": "Elkton Hall", "height": 31.7, "osm": "way/23502736", "osmName": "Elkton Hall", "match": "contains"}, "geometry": {"type": "Polygon", "coordinates": [[[-76.9487284, 38.9928077], [-76.9488841, 38.9925862], [-76.9488388, 38.992567], [-76.9488447, 38.9925586], [-76.9488964, 38.9924851], [-76.9489389, 38.9924248], [-76.9490027, 38.992334], [-76.949045, 38.9923516], [-76.9492071, 38.9921212], [-76.9492536, 38.9921409], [-76.9493286, 38.9921728], [-76.9491109, 38.9924822], [-76.9491591, 38.9925027], [-76.9491407, 38.9925287], [-76.9490931, 38.9925964], [-76.9490802, 38.9926149], [-76.9490334, 38.992595], [-76.948848, 38.9928585], [-76.9487905, 38.9928341], [-76.9487284, 38.9928077]]]}}, {"type": "Feature", "properties": {"dormId": "ellicott", "name": "Ellicott Hall", "height": 35.6, "osm": "way/23502767", "osmName": "Ellicott Hall", "match": "contains"}, "geometry": {"type": "Polygon", "coordinates": [[[-76.9461747, 38.9917676], [-76.9461746, 38.9918322], [-76.9461745, 38.9918733], [-76.9464836, 38.9918735], [-76.9464836, 38.9919071], [-76.9466605, 38.9919071], [-76.9467014, 38.9919073], [-76.9468097, 38.9919073], [-76.9468097, 38.9918716], [-76.9471828, 38.9918719], [-76.9471829, 38.9918282], [-76.947183, 38.9917706], [-76.9468494, 38.9917704], [-76.9468494, 38.9917405], [-76.946838, 38.9917405], [-76.9466896, 38.9917404], [-76.9465055, 38.9917403], [-76.946496, 38.9917403], [-76.9464959, 38.9917678], [-76.9461747, 38.9917676]]]}}, {"type": "Feature", "properties": {"dormId": "hagerstown", "name": "Hagerstown Hall", "height": 23.9, "osm": "way/23502732", "osmName": "Hagerstown Hall", "match": "contains"}, "geometry": {"type": "Polygon", "coordinates": [[[-76.9473644, 38.9920364], [-76.9473641, 38.9922992], [-76.9473295, 38.9922992], [-76.9473293, 38.992389], [-76.9473292, 38.9924708], [-76.9473292, 38.9925162], [-76.9473648, 38.9925162], [-76.9473645, 38.9928225], [-76.9474308, 38.9928226], [-76.9474982, 38.9928226], [-76.9474985, 38.9925512], [-76.9475261, 38.9925513], [-76.9475262, 38.992476], [-76.9475263, 38.9924067], [-76.9475264, 38.9922825], [-76.9474973, 38.9922825], [-76.9474976, 38.9920365], [-76.9474315, 38.9920364], [-76.9473644, 38.9920364]]]}}, {"type": "Feature", "properties": {"dormId": "laplata", "name": "La Plata Hall", "height": 39.5, "osm": "way/23543912", "osmName": "LaPlata Hall", "match": "contains"}, "geometry": {"type": "Polygon", "coordinates": [[[-76.945847, 38.9928475], [-76.9458433, 38.9926182], [-76.9458053, 38.9926183], [-76.9458047, 38.9925022], [-76.9458042, 38.9924013], [-76.9458038, 38.9923096], [-76.9458477, 38.9923094], [-76.945849, 38.9920575], [-76.9459228, 38.9920573], [-76.9459876, 38.9920571], [-76.9459896, 38.992329], [-76.9460281, 38.9923288], [-76.9460285, 38.9923983], [-76.946029, 38.9924982], [-76.9460294, 38.992589], [-76.9459895, 38.9925891], [-76.94599, 38.9928471], [-76.9459274, 38.9928473], [-76.945847, 38.9928475]]]}}, {"type": "Feature", "properties": {"dormId": "johnsonwhittle", "name": "Johnson-Whittle Hall", "height": 14.0, "osm": "way/964453320", "osmName": "Johnson-Whittle Hall", "match": "contains"}, "geometry": {"type": "Polygon", "coordinates": [[[-76.9459324, 38.9914028], [-76.9459297, 38.991025], [-76.945922, 38.9910251], [-76.9459216, 38.99096], [-76.9458671, 38.9909603], [-76.9458671, 38.9909526], [-76.9456622, 38.9909535], [-76.9456623, 38.990966], [-76.9455684, 38.9909664], [-76.9455126, 38.9909666], [-76.9455124, 38.9909497], [-76.9452834, 38.9909507], [-76.9452826, 38.9908395], [-76.9452616, 38.9908396], [-76.9452607, 38.9907206], [-76.9452292, 38.9907207], [-76.9452058, 38.9907208], [-76.9452056, 38.9906972], [-76.9451561, 38.9906974], [-76.9451565, 38.9907505], [-76.9451359, 38.9907506], [-76.9451365, 38.9908468], [-76.9451193, 38.9908469], [-76.9451197, 38.9908988], [-76.945121, 38.9910829], [-76.9452733, 38.9910822], [-76.9455092, 38.9910812], [-76.9455091, 38.991065], [-76.9456589, 38.9910644], [-76.945659, 38.9910824], [-76.9457564, 38.991082], [-76.9457586, 38.9913975], [-76.945784, 38.9913973], [-76.9457844, 38.991459], [-76.9457971, 38.991459], [-76.9457975, 38.9915136], [-76.945862, 38.9915133], [-76.9458618, 38.9914877], [-76.9459114, 38.9914875], [-76.945911, 38.9914314], [-76.9459108, 38.9914029], [-76.9459324, 38.9914028]]]}}, {"type": "Feature", "properties": {"dormId": "pyonchen", "name": "Pyon-Chen Hall", "height": 21.9, "osm": "way/964453319", "osmName": "Pyon Chen Hall", "match": "contains"}, "geometry": {"type": "Polygon", "coordinates": [[[-76.9445346, 38.9920174], [-76.9444805, 38.9920175], [-76.9444803, 38.9919522], [-76.944474, 38.9919523], [-76.9444729, 38.9916162], [-76.9445416, 38.9916161], [-76.9445416, 38.9916046], [-76.9446013, 38.9916045], [-76.9446015, 38.9916519], [-76.9446193, 38.9916518], [-76.9446195, 38.9917132], [-76.9446404, 38.9917132], [-76.9446409, 38.9918922], [-76.9447334, 38.991892], [-76.9447335, 38.9919071], [-76.9449644, 38.9919066], [-76.9449643, 38.9918916], [-76.9449981, 38.9918924], [-76.9452699, 38.991891], [-76.9452695, 38.9917467], [-76.945287, 38.9917467], [-76.9452868, 38.991686], [-76.9453049, 38.991686], [-76.9453047, 38.9916394], [-76.9453653, 38.9916393], [-76.9453653, 38.9916502], [-76.9454283, 38.9916516], [-76.9454335, 38.9916501], [-76.9454344, 38.9919492], [-76.9454237, 38.9919492], [-76.9454239, 38.9920174], [-76.945377, 38.9920175], [-76.945377, 38.9920237], [-76.9449612, 38.9920245], [-76.9449612, 38.992007], [-76.9447343, 38.9920074], [-76.9447344, 38.9920249], [-76.9445346, 38.9920253], [-76.9445346, 38.9920174]]]}}, {"type": "Feature", "properties": {"dormId": "oakland", "name": "Oakland Hall", "height": 31.7, "osm": "way/120379719", "osmName": "Oakland Hall", "match": "contains"}, "geometry": {"type": "Polygon", "coordinates": [[[-76.9500358, 38.9936241], [-76.9498842, 38.9935673], [-76.9498296, 38.9936387], [-76.9497097, 38.9938134], [-76.9496545, 38.9938912], [-76.9491581, 38.9936786], [-76.9488623, 38.9940958], [-76.9490049, 38.9941569], [-76.9492123, 38.9938644], [-76.9497037, 38.9940783], [-76.9500052, 38.9936659], [-76.9500358, 38.9936241]]]}}, {"type": "Feature", "properties": {"dormId": "annearundel", "name": "Anne Arundel Hall", "height": 14.0, "osm": "way/23543512", "osmName": "Anne Arundel Hall", "match": "contains"}, "geometry": {"type": "Polygon", "coordinates": [[[-76.9468084, 38.9862225], [-76.946682, 38.9862225], [-76.9466819, 38.9860988], [-76.9466645, 38.9860988], [-76.9466644, 38.9859974], [-76.946626, 38.9859974], [-76.946626, 38.9859566], [-76.946626, 38.9858997], [-76.9466628, 38.9858997], [-76.9466627, 38.9857973], [-76.9466744, 38.9857972], [-76.9466743, 38.9856736], [-76.9468013, 38.9856735], [-76.9468014, 38.9857829], [-76.9468014, 38.9857937], [-76.9468211, 38.9857937], [-76.9468212, 38.9859566], [-76.9468213, 38.9860971], [-76.9468084, 38.9860971], [-76.9468084, 38.9861221], [-76.9468084, 38.9862225]]]}}, {"type": "Feature", "properties": {"dormId": "caroline", "name": "Caroline Hall", "height": 14.0, "osm": "way/23579434", "osmName": "Caroline Hall", "match": "contains"}, "geometry": {"type": "Polygon", "coordinates": [[[-76.9461734, 38.9835331], [-76.946172, 38.9834778], [-76.9461706, 38.9834222], [-76.9456206, 38.9834305], [-76.9454855, 38.9834326], [-76.9454883, 38.9835443], [-76.9456087, 38.9835425], [-76.9458487, 38.983538], [-76.9460771, 38.9835346], [-76.9461734, 38.9835331]]]}}, {"type": "Feature", "properties": {"dormId": "carroll", "name": "Carroll Hall", "height": 12.2, "osm": "way/23579432", "osmName": "Carroll Hall", "match": "contains"}, "geometry": {"type": "Polygon", "coordinates": [[[-76.9459502, 38.9839226], [-76.9458323, 38.9839246], [-76.9457132, 38.9839266], [-76.9457135, 38.9839392], [-76.9456167, 38.9839408], [-76.9454957, 38.9839428], [-76.9454953, 38.98393], [-76.9453992, 38.9839316], [-76.9452598, 38.9839339], [-76.9452629, 38.9840445], [-76.9453956, 38.9840423], [-76.945491, 38.9840407], [-76.9454913, 38.9840508], [-76.9456099, 38.9840489], [-76.9457262, 38.9840469], [-76.9457259, 38.9840363], [-76.9458481, 38.9840343], [-76.9459532, 38.9840326], [-76.9459523, 38.9839993], [-76.9459502, 38.9839226]]]}}, {"type": "Feature", "properties": {"dormId": "dorchester", "name": "Dorchester Hall", "height": 14.0, "osm": "way/23585307", "osmName": "Dorchester Hall", "match": "contains"}, "geometry": {"type": "Polygon", "coordinates": [[[-76.9464512, 38.9866021], [-76.9462931, 38.9866066], [-76.9462947, 38.986641], [-76.9462785, 38.9866415], [-76.9460397, 38.9866483], [-76.9459633, 38.9866505], [-76.9459659, 38.9867052], [-76.9459787, 38.9869763], [-76.9460285, 38.9869749], [-76.9461309, 38.986972], [-76.946121, 38.9867635], [-76.9464584, 38.9867539], [-76.9464512, 38.9866021]]]}}, {"type": "Feature", "properties": {"dormId": "princefrederick", "name": "Prince Frederick Hall", "height": 31.7, "osm": "way/238683607", "osmName": "Prince Frederick Hall", "match": "contains"}, "geometry": {"type": "Polygon", "coordinates": [[[-76.9451395, 38.9832727], [-76.9451377, 38.9831502], [-76.9451372, 38.9831134], [-76.9458413, 38.983107], [-76.946029, 38.9831046], [-76.9460232, 38.9828327], [-76.9461692, 38.9828308], [-76.9462241, 38.9828301], [-76.9462245, 38.9828466], [-76.9462323, 38.9832137], [-76.946233, 38.9832628], [-76.9455837, 38.9832687], [-76.9451395, 38.9832727]]]}}, {"type": "Feature", "properties": {"dormId": "queenAnnes", "name": "Queen Anne", "height": 15.3, "osm": "way/23891414", "osmName": "Queen Anne's Hall", "match": "contains"}, "geometry": {"type": "Polygon", "coordinates": [[[-76.9462945, 38.9853843], [-76.9462796, 38.9853845], [-76.9462788, 38.9853472], [-76.945955, 38.9853514], [-76.9459546, 38.9853315], [-76.9459254, 38.9853319], [-76.9459236, 38.9852851], [-76.9459237, 38.9852539], [-76.9459544, 38.9852535], [-76.9459495, 38.9850254], [-76.946101, 38.9850235], [-76.9461051, 38.9852164], [-76.9461185, 38.985224], [-76.9461253, 38.9852331], [-76.9463323, 38.9852297], [-76.9464355, 38.9852291], [-76.946438, 38.9853472], [-76.9464298, 38.9853474], [-76.9464306, 38.9853826], [-76.9464143, 38.9853828], [-76.9464151, 38.98542], [-76.9462953, 38.9854216], [-76.9462945, 38.9853843]]]}}, {"type": "Feature", "properties": {"dormId": "somerset", "name": "Somerset Hall", "height": 14.0, "osm": "way/23891435", "osmName": "Somerset Hall", "match": "contains"}, "geometry": {"type": "Polygon", "coordinates": [[[-76.9458394, 38.9848993], [-76.9457068, 38.9848987], [-76.9457062, 38.9849879], [-76.94558, 38.9849874], [-76.9454508, 38.9849868], [-76.9454514, 38.9849005], [-76.9453217, 38.9848999], [-76.9453202, 38.9850902], [-76.9454269, 38.9850907], [-76.9454268, 38.9851008], [-76.945524, 38.9851012], [-76.9455238, 38.9851316], [-76.9455802, 38.9851319], [-76.9456402, 38.9851322], [-76.9456405, 38.9851019], [-76.9457336, 38.9851024], [-76.9457337, 38.9850882], [-76.9458379, 38.9850887], [-76.9458394, 38.9848993]]]}}, {"type": "Feature", "properties": {"dormId": "stmarys", "name": "St. Mary", "height": 14.0, "osm": "way/23585323", "osmName": "St. Mary's Hall", "match": "contains"}, "geometry": {"type": "Polygon", "coordinates": [[[-76.9457607, 38.9869099], [-76.9457606, 38.9868947], [-76.9456287, 38.9868949], [-76.9454566, 38.9868951], [-76.9454567, 38.9869183], [-76.9453533, 38.9869185], [-76.9453537, 38.9870962], [-76.9454737, 38.987096], [-76.9454736, 38.9870684], [-76.9454735, 38.9870201], [-76.9457467, 38.9870197], [-76.9457467, 38.9870611], [-76.9457468, 38.9870898], [-76.94586, 38.9870897], [-76.9458596, 38.9869098], [-76.9457607, 38.9869099]]]}}, {"type": "Feature", "properties": {"dormId": "wicomico", "name": "Wicomico Hall", "height": 13.7, "osm": "way/23579433", "osmName": "Wicomico Hall", "match": "contains"}, "geometry": {"type": "Polygon", "coordinates": [[[-76.9455927, 38.9835432], [-76.9456279, 38.9835426], [-76.9456315, 38.9836545], [-76.9456819, 38.9836535], [-76.9456885, 38.9838354], [-76.945638, 38.9838365], [-76.9456417, 38.9839398], [-76.9456051, 38.9839408], [-76.9456023, 38.9838374], [-76.9455505, 38.9838384], [-76.9455494, 38.9838066], [-76.9455158, 38.9838073], [-76.945513, 38.9837431], [-76.9455118, 38.9836882], [-76.9455456, 38.9836875], [-76.9455445, 38.9836556], [-76.9455958, 38.9836545], [-76.9455927, 38.9835432]]]}}, {"type": "Feature", "properties": {"dormId": "worcester", "name": "Worcester Hall", "height": 14.0, "osm": "way/23546215", "osmName": "Worchester Hall", "match": "contains"}, "geometry": {"type": "Polygon", "coordinates": [[[-76.9449684, 38.9849159], [-76.9449682, 38.9846742], [-76.9449681, 38.9845531], [-76.9449209, 38.9845531], [-76.9447733, 38.9845532], [-76.9447732, 38.9844458], [-76.9450479, 38.9844456], [-76.9451167, 38.9844456], [-76.9451169, 38.9846244], [-76.9451171, 38.9849159], [-76.9449684, 38.9849159]]]}}, {"type": "Feature", "properties": {"dormId": "leonardtown", "name": "Leonardtown", "height": 14.0, "osm": "way/23988742", "osmName": "Leonardtown Housing12", "match": "name-all"}, "geometry": {"type": "Polygon", "coordinates": [[[-76.933887, 38.9846724], [-76.9337332, 38.9846526], [-76.9337247, 38.9846923], [-76.9337007, 38.9846892], [-76.9336893, 38.9847427], [-76.9337024, 38.9847444], [-76.9336954, 38.9847774], [-76.9336935, 38.9847863], [-76.9336622, 38.9847823], [-76.9336573, 38.9848058], [-76.9336875, 38.9848096], [-76.9336817, 38.9848369], [-76.9336788, 38.9848502], [-76.9336635, 38.9848482], [-76.9336512, 38.9849057], [-76.9336805, 38.9849095], [-76.9336719, 38.9849496], [-76.9338315, 38.9849701], [-76.9338405, 38.9849277], [-76.9338663, 38.984931], [-76.9338786, 38.9848731], [-76.9338625, 38.984871], [-76.9338649, 38.98486], [-76.9338706, 38.9848334], [-76.9339011, 38.9848373], [-76.9339061, 38.9848137], [-76.9338753, 38.9848098], [-76.9338773, 38.9848004], [-76.9338839, 38.9847695], [-76.933898, 38.9847713], [-76.9339101, 38.9847145], [-76.9338789, 38.9847105], [-76.933887, 38.9846724]]]}}, {"type": "Feature", "properties": {"dormId": "leonardtown", "name": "Leonardtown", "height": 14.0, "osm": "way/23988743", "osmName": "Leonardtown Housing6", "match": "name-all"}, "geometry": {"type": "Polygon", "coordinates": [[[-76.9336033, 38.9846401], [-76.9335102, 38.9847362], [-76.9334671, 38.984711], [-76.9334485, 38.9847302], [-76.9333902, 38.9846961], [-76.9333997, 38.9846863], [-76.9333783, 38.9846738], [-76.9333564, 38.984661], [-76.9333382, 38.9846798], [-76.9333133, 38.9846652], [-76.933332, 38.984646], [-76.9333171, 38.9846373], [-76.9332911, 38.9846221], [-76.9332809, 38.9846326], [-76.9332232, 38.9845988], [-76.9332425, 38.9845789], [-76.933201, 38.9845547], [-76.9332924, 38.9844603], [-76.9333297, 38.9844821], [-76.9333511, 38.98446], [-76.9334138, 38.9844967], [-76.9334035, 38.9845073], [-76.9334292, 38.9845223], [-76.9334419, 38.9845297], [-76.9334591, 38.9845119], [-76.9334858, 38.9845275], [-76.9334678, 38.9845461], [-76.9334849, 38.9845561], [-76.9335107, 38.9845711], [-76.9335224, 38.984559], [-76.933581, 38.9845933], [-76.9335602, 38.9846148], [-76.9336033, 38.9846401]]]}}, {"type": "Feature", "properties": {"dormId": "leonardtown", "name": "Leonardtown", "height": 14.0, "osm": "way/23988744", "osmName": "Leonardtown Housing5", "match": "name-all"}, "geometry": {"type": "Polygon", "coordinates": [[[-76.9337056, 38.984426], [-76.9335544, 38.9844704], [-76.9335351, 38.9844305], [-76.9335076, 38.9844386], [-76.9334816, 38.9843851], [-76.9334976, 38.9843804], [-76.9334891, 38.984363], [-76.9334793, 38.9843428], [-76.9334521, 38.9843508], [-76.933441, 38.9843281], [-76.9334701, 38.9843195], [-76.9334656, 38.9843104], [-76.9334526, 38.9842835], [-76.9334366, 38.9842882], [-76.9334088, 38.9842309], [-76.9334412, 38.9842214], [-76.9334278, 38.9841939], [-76.9335729, 38.9841513], [-76.9335883, 38.984183], [-76.9336179, 38.9841743], [-76.933644, 38.9842279], [-76.9336282, 38.9842325], [-76.9336373, 38.9842513], [-76.9336461, 38.9842695], [-76.9336717, 38.984262], [-76.9336832, 38.9842856], [-76.9336551, 38.9842938], [-76.9336633, 38.9843106], [-76.9336729, 38.9843305], [-76.9336888, 38.9843258], [-76.9337151, 38.9843801], [-76.9336872, 38.9843883], [-76.9337056, 38.984426]]]}}, {"type": "Feature", "properties": {"dormId": "leonardtown", "name": "Leonardtown", "height": 14.0, "osm": "way/23988745", "osmName": "Leonardtown Housing4", "match": "name-all"}, "geometry": {"type": "Polygon", "coordinates": [[[-76.9331572, 38.9840785], [-76.9330029, 38.9840999], [-76.9330118, 38.9841387], [-76.9329801, 38.9841431], [-76.9329942, 38.9842046], [-76.9330117, 38.9842022], [-76.9330184, 38.9842318], [-76.9330201, 38.984239], [-76.9329914, 38.984243], [-76.9329974, 38.9842692], [-76.9330271, 38.984265], [-76.9330316, 38.9842846], [-76.9330362, 38.9843046], [-76.9330201, 38.9843068], [-76.9330331, 38.9843637], [-76.9330612, 38.9843598], [-76.9330708, 38.9844017], [-76.9332297, 38.9843797], [-76.9332199, 38.9843368], [-76.9332512, 38.9843324], [-76.9332375, 38.9842725], [-76.9332192, 38.984275], [-76.9332147, 38.9842554], [-76.933211, 38.9842391], [-76.9332392, 38.9842352], [-76.9332333, 38.9842092], [-76.9332061, 38.984213], [-76.9332035, 38.9842017], [-76.9331968, 38.9841724], [-76.9332102, 38.9841706], [-76.9331963, 38.9841097], [-76.9331654, 38.984114], [-76.9331572, 38.9840785]]]}}, {"type": "Feature", "properties": {"dormId": "leonardtown", "name": "Leonardtown", "height": 14.0, "osm": "way/23988747", "osmName": "Leonardtown Housing1", "match": "name-all"}, "geometry": {"type": "Polygon", "coordinates": [[[-76.9334381, 38.9837798], [-76.933419, 38.9838142], [-76.9333893, 38.9838043], [-76.9333602, 38.9838569], [-76.933375, 38.9838619], [-76.9333604, 38.9838884], [-76.9333534, 38.983901], [-76.9333264, 38.983892], [-76.933313, 38.9839163], [-76.9333399, 38.9839253], [-76.9333299, 38.9839433], [-76.9333203, 38.9839607], [-76.9333075, 38.9839564], [-76.9332778, 38.98401], [-76.9333038, 38.9840188], [-76.9332837, 38.9840551], [-76.9334279, 38.9841033], [-76.9334477, 38.9840675], [-76.9334772, 38.9840774], [-76.9335073, 38.9840229], [-76.9334902, 38.9840172], [-76.9335015, 38.9839967], [-76.9335106, 38.9839802], [-76.933539, 38.9839897], [-76.9335491, 38.9839713], [-76.9335215, 38.9839621], [-76.9335308, 38.9839453], [-76.9335432, 38.9839228], [-76.9335589, 38.983928], [-76.9335895, 38.9838726], [-76.933558, 38.9838621], [-76.9335777, 38.9838265], [-76.9334381, 38.9837798]]]}}, {"type": "Feature", "properties": {"dormId": "leonardtown", "name": "Leonardtown", "height": 8.3, "osm": "way/23988749", "osmName": "Leonardtown Housing3", "match": "name-all"}, "geometry": {"type": "Polygon", "coordinates": [[[-76.9334421, 38.983647], [-76.933399, 38.9836711], [-76.9334196, 38.9836934], [-76.9333586, 38.9837274], [-76.9333482, 38.9837162], [-76.9333182, 38.9837329], [-76.9333075, 38.9837389], [-76.9333235, 38.9837563], [-76.9332962, 38.9837715], [-76.9332785, 38.9837524], [-76.9332602, 38.9837626], [-76.9332364, 38.9837759], [-76.9332461, 38.9837864], [-76.9331866, 38.9838196], [-76.9331693, 38.983801], [-76.9331287, 38.9838236], [-76.9330292, 38.9837159], [-76.9331531, 38.9836468], [-76.9331679, 38.9836386], [-76.9331503, 38.9836195], [-76.933183, 38.9836013], [-76.9332011, 38.9836209], [-76.9332114, 38.9836152], [-76.9332445, 38.9835967], [-76.933234, 38.9835853], [-76.9332962, 38.9835506], [-76.9333134, 38.9835693], [-76.933351, 38.9835483], [-76.9334421, 38.983647]]]}}, {"type": "Feature", "properties": {"dormId": "leonardtown", "name": "Leonardtown", "height": 14.0, "osm": "way/23988758", "osmName": "Leonardtown Community Center", "match": "name-all"}, "geometry": {"type": "Polygon", "coordinates": [[[-76.9332745, 38.9833079], [-76.9333553, 38.9834176], [-76.9333677, 38.9834121], [-76.9334382, 38.9835078], [-76.9335598, 38.9834537], [-76.9335787, 38.9834793], [-76.9335977, 38.9835052], [-76.9337383, 38.9834426], [-76.9336533, 38.9833273], [-76.9336395, 38.9833334], [-76.9335452, 38.9832054], [-76.9334883, 38.9832307], [-76.9334243, 38.9832592], [-76.9334143, 38.9832457], [-76.9333004, 38.9832964], [-76.9332745, 38.9833079]]]}}, {"type": "Feature", "properties": {"dormId": "allegany", "name": "Allegany Hall", "height": 14.0, "osm": "way/23987828", "osmName": "Allegany Hall", "match": "contains"}, "geometry": {"type": "Polygon", "coordinates": [[[-76.9420081, 38.9814959], [-76.9418727, 38.981499], [-76.9416615, 38.9815039], [-76.9414411, 38.9815089], [-76.9412182, 38.9815141], [-76.941021, 38.9815186], [-76.9408687, 38.9815221], [-76.9408727, 38.9816264], [-76.9414427, 38.9816133], [-76.9420121, 38.9816002], [-76.9420081, 38.9814959]]]}}, {"type": "Feature", "properties": {"dormId": "baltimore", "name": "Baltimore Hall", "height": 14.0, "osm": "way/23987777", "osmName": "Baltimore Hall", "match": "contains"}, "geometry": {"type": "Polygon", "coordinates": [[[-76.9421523, 38.9824547], [-76.9421514, 38.9824054], [-76.9421476, 38.9822483], [-76.9421444, 38.9820987], [-76.9421433, 38.98203], [-76.9422843, 38.9820287], [-76.9422853, 38.9820926], [-76.9422874, 38.9822544], [-76.9422895, 38.982403], [-76.9422904, 38.9824532], [-76.9421523, 38.9824547]]]}}, {"type": "Feature", "properties": {"dormId": "calvert", "name": "Calvert Hall", "height": 14.0, "osm": "way/23987826", "osmName": "Calvert Hall", "match": "contains"}, "geometry": {"type": "Polygon", "coordinates": [[[-76.9421768, 38.9831415], [-76.9421801, 38.9832298], [-76.9423688, 38.9832255], [-76.9423668, 38.9831745], [-76.9423647, 38.9831166], [-76.9424286, 38.9831151], [-76.9424257, 38.9830376], [-76.9424204, 38.9828962], [-76.9424143, 38.9827338], [-76.942357, 38.9827351], [-76.9423529, 38.9826247], [-76.9421606, 38.982629], [-76.9421641, 38.9827216], [-76.9422755, 38.9827191], [-76.9422805, 38.9828527], [-76.942287, 38.9830262], [-76.9422912, 38.9831389], [-76.9421768, 38.9831415]]]}}, {"type": "Feature", "properties": {"dormId": "cecil", "name": "Cecil Hall", "height": 14.3, "osm": "way/23987798", "osmName": "Cecil Hall", "match": "contains"}, "geometry": {"type": "Polygon", "coordinates": [[[-76.9415919, 38.9830509], [-76.9415842, 38.9830515], [-76.9415826, 38.9829766], [-76.9415759, 38.9828384], [-76.9415866, 38.9828389], [-76.9415807, 38.9827477], [-76.941721, 38.9827443], [-76.9417268, 38.9828456], [-76.9417266, 38.982901], [-76.9417411, 38.9829009], [-76.9417425, 38.9829844], [-76.9417343, 38.9829844], [-76.9417321, 38.9830375], [-76.9417354, 38.9830509], [-76.9417308, 38.9830509], [-76.941733, 38.9831392], [-76.9415926, 38.9831419], [-76.9415919, 38.9830509]]]}}, {"type": "Feature", "properties": {"dormId": "charles", "name": "Charles Hall", "height": 14.0, "osm": "way/23987837", "osmName": "Charles Hall", "match": "contains"}, "geometry": {"type": "Polygon", "coordinates": [[[-76.9408045, 38.9817061], [-76.9406711, 38.9817081], [-76.9406684, 38.9815978], [-76.9406197, 38.9815985], [-76.9406008, 38.9815988], [-76.9406017, 38.9816348], [-76.9404913, 38.9816364], [-76.9404919, 38.9816624], [-76.9404147, 38.9816636], [-76.9403414, 38.9816646], [-76.9403407, 38.9816362], [-76.9402994, 38.9816368], [-76.9402968, 38.9815313], [-76.9406042, 38.9815268], [-76.9406044, 38.9815356], [-76.9406681, 38.9815347], [-76.9406679, 38.9815263], [-76.9408001, 38.9815244], [-76.9408045, 38.9817061]]]}}, {"type": "Feature", "properties": {"dormId": "frederick", "name": "Frederick Hall", "height": 14.0, "osm": "way/23987783", "osmName": "Frederick Hall", "match": "contains"}, "geometry": {"type": "Polygon", "coordinates": [[[-76.9406763, 38.9818697], [-76.9406792, 38.9819794], [-76.9406829, 38.9821192], [-76.9406856, 38.9822203], [-76.9408199, 38.9822182], [-76.9408106, 38.9818675], [-76.9406763, 38.9818697]]]}}, {"type": "Feature", "properties": {"dormId": "garrett", "name": "Garrett Hall", "height": 14.0, "osm": "way/23987891", "osmName": "Garrett Hall", "match": "contains"}, "geometry": {"type": "Polygon", "coordinates": [[[-76.9429334, 38.9831982], [-76.9429358, 38.9833001], [-76.9427558, 38.9833027], [-76.9427564, 38.9833309], [-76.9427042, 38.9833316], [-76.9426536, 38.9833324], [-76.942653, 38.9833035], [-76.9424473, 38.9833064], [-76.9424449, 38.9832052], [-76.9429334, 38.9831982]]]}}, {"type": "Feature", "properties": {"dormId": "harford", "name": "Harford Hall", "height": 14.0, "osm": "way/23987795", "osmName": "Harford Hall", "match": "contains"}, "geometry": {"type": "Polygon", "coordinates": [[[-76.9408194, 38.9822963], [-76.9406943, 38.9822978], [-76.9406943, 38.9824756], [-76.9408215, 38.9825653], [-76.9409387, 38.9826535], [-76.9409566, 38.9826681], [-76.941047, 38.9826681], [-76.9411234, 38.982666], [-76.9411782, 38.9826618], [-76.9411782, 38.9825591], [-76.9410525, 38.9825606], [-76.9410037, 38.9825601], [-76.9409078, 38.9824935], [-76.9408288, 38.9824293], [-76.9408275, 38.9823943], [-76.9408194, 38.9822963]]]}}, {"type": "Feature", "properties": {"dormId": "howard", "name": "Howard Hall", "height": 14.0, "osm": "way/23987773", "osmName": "Howard Hall", "match": "contains"}, "geometry": {"type": "Polygon", "coordinates": [[[-76.9419206, 38.9818472], [-76.9419209, 38.9819767], [-76.9419211, 38.9820503], [-76.9420506, 38.9820501], [-76.9420504, 38.981949], [-76.9420502, 38.9818471], [-76.9419206, 38.9818472]]]}}, {"type": "Feature", "properties": {"dormId": "kent", "name": "Kent Hall", "height": 14.0, "osm": "way/23987802", "osmName": "Kent Hall", "match": "contains"}, "geometry": {"type": "Polygon", "coordinates": [[[-76.942067, 38.9832132], [-76.9418417, 38.9832182], [-76.9415944, 38.9832232], [-76.9415977, 38.9833187], [-76.9418368, 38.983315], [-76.9420704, 38.9833087], [-76.942067, 38.9832132]]]}}, {"type": "Feature", "properties": {"dormId": "montgomery", "name": "Montgomery Hall", "height": 12.9, "osm": "way/23579390", "osmName": "Montgomery Hall", "match": "contains"}, "geometry": {"type": "Polygon", "coordinates": [[[-76.9390387, 38.981947], [-76.9390393, 38.9819386], [-76.9389727, 38.9819416], [-76.9389705, 38.9818901], [-76.9389693, 38.9818445], [-76.9396641, 38.9818296], [-76.9396679, 38.9818934], [-76.9396676, 38.9819291], [-76.9395979, 38.9819366], [-76.9395421, 38.9819379], [-76.9393878, 38.9819411], [-76.9393886, 38.9819653], [-76.9393255, 38.9819662], [-76.9392621, 38.981968], [-76.9392612, 38.9819422], [-76.9390959, 38.9819458], [-76.9390387, 38.981947]]]}}, {"type": "Feature", "properties": {"dormId": "montgomery", "name": "Montgomery Hall", "height": 13.3, "osm": "way/1499355452", "osmName": "Montgomery Hall", "match": "contains"}, "geometry": {"type": "Polygon", "coordinates": [[[-76.9390393, 38.9819386], [-76.9390427, 38.9820143], [-76.939049, 38.982192], [-76.939051, 38.9822956], [-76.9389124, 38.9822986], [-76.9388999, 38.9819432], [-76.9390393, 38.9819386]]]}}, {"type": "Feature", "properties": {"dormId": "montgomery", "name": "Montgomery Hall", "height": 13.9, "osm": "way/1499355453", "osmName": "Montgomery Hall", "match": "contains"}, "geometry": {"type": "Polygon", "coordinates": [[[-76.9395979, 38.9819366], [-76.9396676, 38.9819291], [-76.9397401, 38.9819275], [-76.9397446, 38.9820262], [-76.9397529, 38.9821763], [-76.9397526, 38.9822845], [-76.9396102, 38.9822876], [-76.9396089, 38.9821908], [-76.9396013, 38.9820108], [-76.9395979, 38.9819366]]]}}, {"type": "Feature", "properties": {"dormId": "princegeorges", "name": "Prince George", "height": 14.0, "osm": "way/23987796", "osmName": "Prince George's Hall", "match": "contains"}, "geometry": {"type": "Polygon", "coordinates": [[[-76.9415906, 38.9825433], [-76.9415906, 38.9826281], [-76.9419634, 38.9826281], [-76.9420629, 38.9826281], [-76.9420628, 38.9825433], [-76.9418387, 38.9825448], [-76.9415906, 38.9825433]]]}}, {"type": "Feature", "properties": {"dormId": "talbot", "name": "Talbot Hall", "height": 14.0, "osm": "way/23987896", "osmName": "Talbot Hall", "match": "contains"}, "geometry": {"type": "Polygon", "coordinates": [[[-76.9423999, 38.9834103], [-76.9423959, 38.9832991], [-76.9421567, 38.9833043], [-76.9421606, 38.9834126], [-76.9422004, 38.9834118], [-76.9422012, 38.9834342], [-76.9422787, 38.9834325], [-76.9423655, 38.9834306], [-76.9423648, 38.983411], [-76.9423999, 38.9834103]]]}}, {"type": "Feature", "properties": {"dormId": "washington", "name": "Washington Hall", "height": 14.0, "osm": "way/23987770", "osmName": "Washington Hall", "match": "contains"}, "geometry": {"type": "Polygon", "coordinates": [[[-76.9418617, 38.9818636], [-76.9417344, 38.9818661], [-76.9413688, 38.9818734], [-76.9410006, 38.9818807], [-76.9408701, 38.9818832], [-76.9408668, 38.9817833], [-76.9417876, 38.9817651], [-76.9418584, 38.9817637], [-76.9418617, 38.9818636]]]}}]}